NORAD_CAT_ID,OBJECT_NAME,OBJECT_TYPE,EPOCH,MEAN_MOTION,ECCENTRICITY,INCLINATION,RA_OF_ASC_NODE,ARG_OF_PERICENTER,MEAN_ANOMALY,BSTAR,MEAN_MOTION_DOT,MEAN_MOTION_DDOT,TLE_LINE0,TLE_LINE1,TLE_LINE2,SEMIMAJOR_AXIS,PERIOD,APOGEE,PERIGEE,DECAYED
54761.0,STARLINK-5202,PAYLOAD,2024-01-25 23:47:52,15.08834409,0.0001387,53.2174,277.6169,92.3467,267.7684,4.0445e-05,3.56e-06,0.0,0 STARLINK-5202,1 54761U 22175D   24025.99158335  .00000356  00000-0  40445-4 0  9991,2 54761  53.2174 277.6169 0001387  92.3467 267.7684 15.08834409 63118,6917.897,95.438,540.722,538.803,0.0
54761.0,STARLINK-5202,PAYLOAD,2024-01-26 23:38:39,15.08841277,0.0001452,53.2172,273.1556,98.3268,261.7889,0.00014492,2.019e-05,0.0,0 STARLINK-5202,1 54761U 22175D   24026.98517805  .00002019  00000-0  14492-3 0  9992,2 54761  53.2172 273.1556 0001452  98.3268 261.7889 15.08841277 61104,6917.876,95.437,540.746,538.737,0.0
54761.0,STARLINK-5202,PAYLOAD,2024-01-27 20:18:40,15.08837521,0.0001689,53.218,269.2884,80.0258,280.0925,2.9066e-05,1.75e-06,0.0,0 STARLINK-5202,1 54761U 22175D   24027.84630767  .00000175  00000-0  29066-4 0  9996,2 54761  53.2180 269.2884 0001689  80.0258 280.0925 15.08837521 61238,6917.888,95.438,540.921,538.585,0.0
54761.0,STARLINK-5202,PAYLOAD,2024-01-27 21:54:04,15.08794412,0.0001548,53.2177,268.9942,107.4811,252.635,0.0005684,8.758e-05,0.0,0 STARLINK-5202,1 54761U 22175D   24027.91255297  .00008758  00000-0  56840-3 0  9999,2 54761  53.2177 268.9942 0001548 107.4811 252.6350 15.08794412 63407,6918.02,95.44,540.956,538.814,0.0
54761.0,STARLINK-5202,PAYLOAD,2024-01-28 01:04:50,15.08832719,0.0001675,53.2183,268.3972,74.6716,285.4461,7.3944e-05,8.89e-06,0.0,0 STARLINK-5202,1 54761U 22175D   24028.04502936  .00000889  00000-0  73944-4 0  9991,2 54761  53.2183 268.3972 0001675  74.6716 285.4461 15.08832719 63423,6917.903,95.438,540.926,538.609,0.0
54761.0,STARLINK-5202,PAYLOAD,2024-01-28 21:44:48,15.08876201,0.0001603,53.2183,264.5296,89.5041,270.6134,0.00029873,4.474e-05,0.0,0 STARLINK-5202,1 54761U 22175D   24028.90611727  .00004474  00000-0  29873-3 0  9990,2 54761  53.2183 264.5296 0001603  89.5041 270.6134 15.08876201 63558,6917.77,95.435,540.744,538.526,0.0
54761.0,STARLINK-5202,PAYLOAD,2024-01-28 23:20:10,15.08889576,0.0001715,53.2185,264.2357,122.629,237.4868,0.00040396,6.155e-05,0.0,0 STARLINK-5202,1 54761U 22175D   24028.97234328  .00006155  00000-0  40396-3 0  9996,2 54761  53.2185 264.2357 0001715 122.6290 237.4868 15.08889576 61400,6917.729,95.434,540.78,538.407,0.0
54761.0,STARLINK-5202,PAYLOAD,2024-01-30 02:21:50,15.08802038,0.0001384,53.2167,259.1817,98.853,261.2619,-0.00027185,-4.607e-05,0.0,0 STARLINK-5202,1 54761U 22175D   24030.09849909 -.00004607  00000-0 -27185-3 0  9992,2 54761  53.2167 259.1817 0001384  98.8530 261.2619 15.08802038 61572,6917.996,95.44,540.819,538.904,0.0
54761.0,STARLINK-5202,PAYLOAD,2024-01-30 05:32:36,15.08814035,0.0001518,53.2196,258.5802,82.7155,277.401,-0.00013968,-2.509e-05,0.0,0 STARLINK-5202,1 54761U 22175D   24030.23097646 -.00002509  00000-0 -13968-3 0  9994,2 54761  53.2196 258.5802 0001518  82.7155 277.4010 15.08814035 61591,6917.96,95.439,540.875,538.775,0.0
54761.0,STARLINK-5202,PAYLOAD,2024-01-30 19:51:03,15.08849326,0.0001432,53.2198,255.9099,92.9159,267.1997,-0.00040424,-6.717e-05,0.0,0 STARLINK-5202,1 54761U 22175D   24030.82712486 -.00006717  00000-0 -40424-3 0  9997,2 54761  53.2198 255.9099 0001432  92.9159 267.1997 15.08849326 61685,6917.852,95.437,540.708,538.726,0.0
54761.0,STARLINK-5202,PAYLOAD,2024-01-30 21:26:25,15.08862245,0.0001939,53.219,255.6127,131.2631,228.8528,-0.00026503,-4.506e-05,0.0,0 STARLINK-5202,1 54761U 22175D   24030.89334993 -.00004506  00000-0 -26503-3 0  9993,2 54761  53.2190 255.6127 0001939 131.2631 228.8528 15.08862245 63850,6917.812,95.436,541.019,538.336,0.0
54761.0,STARLINK-5202,PAYLOAD,2024-01-31 00:37:11,15.08862158,0.0001795,53.2186,255.0153,131.6012,228.5134,-0.00026734,-4.543e-05,0.0,0 STARLINK-5202,1 54761U 22175D   24031.02582844 -.00004543  00000-0 -26734-3 0  9996,2 54761  53.2186 255.0153 0001795 131.6012 228.5134 15.08862158 61711,6917.813,95.436,540.919,538.436,0.0
54761.0,STARLINK-5202,PAYLOAD,2024-02-01 00:27:58,15.08837242,0.0001378,53.2175,250.5529,85.2183,274.8966,0.00040765,6.205e-05,0.0,0 STARLINK-5202,1 54761U 22175D   24032.01942714  .00006205  00000-0  40765-3 0  9997,2 54761  53.2175 250.5529 0001378  85.2183 274.8966 15.08837242 61865,6917.889,95.438,540.707,538.801,0.0
54761.0,STARLINK-5202,PAYLOAD,2024-02-01 16:21:50,15.08839174,0.000135,53.217,247.585,83.4407,276.6739,0.00016673,2.367e-05,0.0,0 STARLINK-5202,1 54761U 22175D   24032.68183415  .00002367  00000-0  16673-3 0  9991,2 54761  53.2170 247.5850 0001350  83.4407 276.6739 15.08839174 61967,6917.883,95.438,540.682,538.814,0.0
54761.0,STARLINK-5202,PAYLOAD,2024-02-02 00:18:45,15.08851088,0.0001525,53.2165,246.095,99.7781,260.3384,3.8878e-05,3.31e-06,0.0,0 STARLINK-5202,1 54761U 22175D   24033.01302910  .00000331  00000-0  38878-4 0  9993,2 54761  53.2165 246.0950 0001525  99.7781 260.3384 15.08851088 62016,6917.846,95.437,540.766,538.657,0.0
54761.0,STARLINK-5202,PAYLOAD,2024-02-02 14:37:14,15.0884574,0.0001934,53.2165,243.4181,112.1639,247.9559,-3.8897e-05,-9.07e-06,0.0,0 STARLINK-5202,1 54761U 22175D   24033.60918988 -.00000907  00000-0 -38897-4 0  9998,2 54761  53.2165 243.4181 0001934 112.1639 247.9559 15.08845740 64261,6917.863,95.437,541.066,538.39,0.0
54761.0,STARLINK-5202,PAYLOAD,2024-02-02 19:23:23,15.08844068,0.0001566,53.2162,242.5249,104.8407,255.2759,-4.4346e-05,-9.94e-06,0.0,0 STARLINK-5202,1 54761U 22175D   24033.80791022 -.00000994  00000-0 -44346-4 0  9990,2 54761  53.2162 242.5249 0001566 104.8407 255.2759 15.08844068 62135,6917.868,95.437,540.816,538.65,0.0
54761.0,STARLINK-5202,PAYLOAD,2024-02-02 20:58:46,15.08843816,0.0001479,53.2161,242.2275,100.164,259.9519,-4.4518e-05,-9.96e-06,0.0,0 STARLINK-5202,1 54761U 22175D   24033.87415013 -.00000996  00000-0 -44518-4 0  9993,2 54761  53.2161 242.2275 0001479 100.1640 259.9519 15.08843816 64307,6917.869,95.437,540.757,538.711,0.0
54761.0,STARLINK-5202,PAYLOAD,2024-02-03 20:49:33,15.08840003,0.0001401,53.216,237.7665,92.1265,267.9887,-4.1736e-05,-9.52e-06,0.0,0 STARLINK-5202,1 54761U 22175D   24034.86775096 -.00000952  00000-0 -41736-4 0  9994,2 54761  53.2160 237.7665 0001401  92.1265 267.9887 15.08840003 62294,6917.88,95.438,540.715,538.776,0.0
54761.0,STARLINK-5202,PAYLOAD,2024-02-04 22:15:43,15.08841425,0.0001349,53.2164,233.0123,92.9429,267.1718,4.886e-05,4.9e-06,0.0,0 STARLINK-5202,1 54761U 22175D   24035.92758740  .00000490  00000-0  48860-4 0  9999,2 54761  53.2164 233.0123 0001349  92.9429 267.1718 15.08841425 64619,6917.876,95.437,540.674,538.808,0.0
54761.0,STARLINK-5202,PAYLOAD,2024-02-05 12:34:12,15.0883634,0.0001377,53.2163,230.3378,84.0904,276.0245,2.2087e-05,6.4e-07,0.0,0 STARLINK-5202,1 54761U 22175D   24036.52375319  .00000064  00000-0  22087-4 0  9993,2 54761  53.2163 230.3378 0001377  84.0904 276.0245 15.08836340 62545,6917.892,95.438,540.709,538.804,0.0
54761.0,STARLINK-5202,PAYLOAD,2024-02-05 20:31:08,15.08835901,0.000136,53.2163,228.8503,85.8966,274.2182,1.8117e-05,0.0,0.0,0 STARLINK-5202,1 54761U 22175D   24036.85495430  .00000000  00000-0  18117-4 0  9995,2 54761  53.2163 228.8503 0001360  85.8966 274.2182 15.08835901 64753,6917.893,95.438,540.699,538.817,0.0
54761.0,STARLINK-5202,PAYLOAD,2024-02-06 18:46:30,15.08848333,0.0001347,53.2164,224.6872,85.5225,274.5921,7.5806e-05,9.19e-06,0.0,0 STARLINK-5202,1 54761U 22175D   24037.78230291  .00000919  00000-0  75806-4 0  9997,2 54761  53.2164 224.6872 0001347  85.5225 274.5921 15.08848333 62730,6917.855,95.437,540.652,538.788,0.0
54761.0,STARLINK-5202,PAYLOAD,2024-02-07 18:37:18,15.08836997,0.0001185,53.216,220.2257,89.9584,270.1544,5.6016e-05,6.04e-06,0.0,0 STARLINK-5202,1 54761U 22175D   24038.77590937  .00000604  00000-0  56016-4 0  9996,2 54761  53.2160 220.2257 0001185  89.9584 270.1544 15.08836997 62883,6917.89,95.438,540.574,538.935,0.0
54761.0,STARLINK-5202,PAYLOAD,2024-02-07 21:48:04,15.08841449,0.0001187,53.2165,219.6302,91.4164,268.6965,1.1923e-05,-9.8e-07,0.0,0 STARLINK-5202,1 54761U 22175D   24038.90838778 -.00000098  00000-0  11923-4 0  9995,2 54761  53.2165 219.6302 0001187  91.4164 268.6965 15.08841449 65065,6917.876,95.437,540.562,538.92,0.0
54761.0,STARLINK-5202,PAYLOAD,2024-02-08 18:28:06,15.08832346,0.0001421,53.2172,215.7623,99.2185,260.8968,-6.5326e-05,-1.327e-05,0.0,0 STARLINK-5202,1 54761U 22175D   24039.76951821 -.00001327  00000-0 -65326-4 0  9998,2 54761  53.2172 215.7623 0001421  99.2185 260.8968 15.08832346 63034,6917.904,95.438,540.752,538.786,0.0
54761.0,STARLINK-5202,PAYLOAD,2024-02-08 21:38:52,15.08832024,0.0001419,53.2172,215.1676,99.071,261.0442,-6.5465e-05,-1.329e-05,0.0,0 STARLINK-5202,1 54761U 22175D   24039.90199895 -.00001329  00000-0 -65465-4 0  9995,2 54761  53.2172 215.1676 0001419  99.0710 261.0442 15.08832024 65210,6917.905,95.438,540.751,538.788,0.0
54761.0,STARLINK-5202,PAYLOAD,2024-02-09 11:57:20,15.08840002,0.0001328,53.217,212.4921,96.6877,263.4266,8.8108e-05,1.115e-05,0.0,0 STARLINK-5202,1 54761U 22175D   24040.49814921  .00001115  00000-0  88108-4 0  9995,2 54761  53.2170 212.4921 0001328  96.6877 263.4266 15.08840002 63142,6917.88,95.438,540.664,538.827,0.0
54761.0,STARLINK-5202,PAYLOAD,2024-02-09 18:18:52,15.08845898,0.000136,53.217,211.3028,96.6333,263.4814,0.00013356,1.839e-05,0.0,0 STARLINK-5202,1 54761U 22175D   24040.76310397  .00001839  00000-0  13356-3 0  9998,2 54761  53.2170 211.3028 0001360  96.6333 263.4814 15.08845898 63182,6917.862,95.437,540.668,538.787,0.0
54761.0,STARLINK-5202,PAYLOAD,2024-02-10 11:48:07,15.08835314,0.0001341,53.2174,208.034,97.0858,263.0286,6.2562e-05,7.08e-06,0.0,0 STARLINK-5202,1 54761U 22175D   24041.49175512  .00000708  00000-0  62562-4 0  9995,2 54761  53.2174 208.0340 0001341  97.0858 263.0286 15.08835314 63295,6917.895,95.438,540.687,538.832,0.0
